OBJECT_NAME,OBJECT_ID,EPOCH,MEAN_MOTION,ECCENTRICITY,INCLINATION,RA_OF_ASC_NODE,ARG_OF_PERICENTER,MEAN_ANOMALY,EPHEMERIS_TYPE,CLASSIFICATION_TYPE,NORAD_CAT_ID,ELEMENT_SET_NO,REV_AT_EPOCH,BSTAR,MEAN_MOTION_DOT,MEAN_MOTION_DDOT
GSAT-16,2014-078A,2026-06-19T13:08:20.729760,1.00271088,.00076433,0.0958,89.1623,0.8157,69.9462,0,U,40332,999,4213,0,.79E-6,0
DIRECTV 14,2014-078B,2026-06-19T12:37:10.014240,1.00270357,.00003274,0.0093,19.6463,295.3294,42.8268,0,U,40333,999,4206,0,-.131E-5,0
YAMAL 401,2014-082A,2026-06-19T15:28:28.898688,1.00273978,.00002685,0.0115,18.4494,122.0139,89.4969,0,U,40345,999,4194,0,0,0
ASTRA 2G,2014-089A,2026-06-19T13:00:36.473184,1.00268990,.00046964,0.0460,3.9206,62.9219,64.2613,0,U,40364,999,4199,0,.144E-5,0
FENGYUN 2G,2014-090A,2026-06-19T15:03:41.260896,1.00271046,.00038445,5.6461,72.7877,159.3663,1.3020,0,U,40367,999,4202,0,-.31E-5,0
MUOS-3,2015-002A,2026-06-19T09:22:43.613184,1.00271369,.00521025,4.5246,43.5308,177.9635,171.3705,0,U,40374,999,4160,0,-.136E-5,0
INMARSAT 5-F2,2015-005A,2026-06-19T05:46:14.677824,1.00266940,.00007059,0.0189,9.1922,276.6774,13.1563,0,U,40384,999,4101,0,-.292E-5,0
ABS-3A,2015-010A,2026-06-19T06:01:05.754720,1.00270019,.00018315,0.0383,53.6665,350.9632,310.1053,0,U,40424,999,4139,0,0,0
EUTELSAT 115 WEST B,2015-010B,2026-06-19T11:34:38.788896,1.00275408,.00005657,0.0120,153.6503,325.1192,207.7110,0,U,40425,999,4141,0,-.32E-6,0
EXPRESS-AM7,2015-012A,2026-06-19T13:03:58.649184,1.00271942,.00029748,0.0149,55.7573,38.4653,49.5116,0,U,40505,999,4103,0,.145E-5,0
BEIDOU-3S IGSO-1S,2015-019A,2026-06-16T20:07:21.731808,1.00249739,.00390475,49.1960,295.4654,191.2267,171.7060,0,U,40549,999,4107,0,-.175E-5,0
THOR 7,2015-022A,2026-06-19T06:01:43.195296,1.00273224,.00024611,0.0233,241.0689,205.7284,270.4749,0,U,40613,999,4083,0,-.14E-6,0
TURKMENALEM52E/MONACOSAT,2015-023A,2026-06-19T13:07:28.314336,1.00272092,.00027615,0.0429,79.9820,2.2670,74.3910,0,U,40617,999,4087,0,.98E-6,0
DIRECTV 15,2015-026A,2026-06-19T12:23:17.550240,1.00273480,.00002455,0.0137,53.7895,328.8611,328.0248,0,U,40663,999,4048,0,-.109E-5,0
SKY MEXICO-1,2015-026B,2026-06-19T12:30:09.392256,1.00272301,.00021047,0.0158,54.5474,50.5186,271.4138,0,U,40664,999,4047,0,-.24E-5,0
METEOSAT-11 (MSG-4),2015-034A,2026-06-19T06:04:42.908160,1.00263709,.00024229,3.2061,71.0943,346.2706,310.9097,0,U,40732,999,723,0,.56E-6,0
STAR ONE C4,2015-034B,2026-06-19T09:07:15.096576,1.00272503,.00020485,0.0215,1.5931,52.3564,280.4743,0,U,40733,999,4003,0,-.271E-5,0
WGS F7 (USA 263),2015-036A,2026-06-19T03:26:30.967872,1.00270644,.0000256,0.0021,358.7364,325.6112,169.6528,0,U,40746,999,3989,0,.11E-6,0
INTELSAT 34 (IS-34),2015-039A,2026-06-19T09:11:22.202304,1.00288278,.0000705,0.0094,7.4220,83.2055,259.3358,0,U,40874,999,3965,0,-.292E-5,0
EUTELSAT 8 WEST B,2015-039B,2026-06-19T09:24:58.398048,1.00271571,.00038961,0.0626,350.6515,94.6297,315.5859,0,U,40875,999,3967,0,-.72E-6,0
GSAT-6,2015-041A,2026-06-19T01:17:31.195392,1.00271850,.00032743,1.9238,82.5727,359.4466,287.1866,0,U,40880,999,3961,0,-.167E-5,0
INMARSAT 5-F3,2015-042A,2026-06-19T03:27:53.335584,1.00269815,.00001602,0.0179,16.0850,24.5770,98.3032,0,U,40882,999,3959,0,.44E-6,0
MUOS-4,2015-044A,2026-06-19T13:14:05.179776,1.00271421,.005787,4.3350,42.2675,2.3361,136.6713,0,U,40887,999,3958,0,-.1E-5,0
TJS-1,2015-046A,2026-06-19T13:59:00.377664,1.00270822,.00056027,0.3307,84.9014,0.7438,186.9636,0,U,40892,999,3959,0,-.162E-5,0
EXPRESS-AM8,2015-048A,2026-06-19T14:31:04.393344,1.00271528,.0000403,0.0172,322.6068,341.9449,167.0360,0,U,40895,999,3937,0,-.117E-5,0
BEIDOU-3S IGSO-2S,2015-053A,2026-06-19T13:57:47.952864,1.00258860,.00656369,49.2167,258.7534,192.2755,121.2664,0,U,40938,999,3937,0,-.142E-5,0
SKY MUSTER 1 (NBN1A),2015-054A,2026-06-19T12:11:38.822208,1.00268925,.00016911,0.0230,349.6426,97.4768,143.7599,0,U,40940,999,3928,0,0,0
ARSAT 2,2015-054B,2026-06-19T03:56:09.696768,1.00270450,.00020135,0.0103,12.6317,60.1259,172.6653,0,U,40941,999,3932,0,-.231E-5,0
MORELOS 3,2015-056A,2026-06-19T11:34:38.788896,1.00270793,.0001088,3.1888,15.1270,3.9745,309.1718,0,U,40946,999,3930,0,-.5E-6,0
APSTAR-9,2015-059A,2026-06-19T15:15:45.669600,1.00271044,.00023396,0.0404,57.1225,127.5906,94.0971,0,U,40982,999,3914,0,-.272E-5,0
TURKSAT 4B,2015-060A,2026-06-19T13:06:50.873760,1.00268269,.00021784,0.0194,339.7805,102.2215,72.4549,0,U,40984,999,3912,0,.109E-5,0
ZHONGXING-2C,2015-063A,2026-06-19T15:04:41.164608,1.00269710,.00077397,0.2812,89.5962,99.1665,48.7026,0,U,41021,999,3900,0,-.329E-5,0
