GSAT-16                 
1 40332U 14078A   26170.54746215  .00000079  00000+0  00000+0 0  9996
2 40332   0.0958  89.1623 0007643   0.8157  69.9462  1.00271088 42139
DIRECTV 14              
1 40333U 14078B   26170.52581035 -.00000131  00000+0  00000+0 0  9992
2 40333   0.0093  19.6463 0000327 295.3294  42.8268  1.00270357 42069
YAMAL 401               
1 40345U 14082A   26170.64477892  .00000000  00000+0  00000+0 0  9992
2 40345   0.0115  18.4494 0000268 122.0139  89.4969  1.00273978 41949
ASTRA 2G                
1 40364U 14089A   26170.54208881  .00000144  00000+0  00000+0 0  9998
2 40364   0.0460   3.9206 0004696  62.9219  64.2613  1.00268990 41993
FENGYUN 2G              
1 40367U 14090A   26170.62756089 -.00000310  00000+0  00000+0 0  9996
2 40367   5.6461  72.7877 0003844 159.3663   1.3020  1.00271046 42029
MUOS-3                  
1 40374U 15002A   26170.39078256 -.00000136  00000+0  00000+0 0  9991
2 40374   4.5246  43.5308 0052102 177.9635 171.3705  1.00271369 41606
INMARSAT 5-F2           
1 40384U 15005A   26170.24044766 -.00000292  00000+0  00000+0 0  9991
2 40384   0.0189   9.1922 0000705 276.6774  13.1563  1.00266940 41016
ABS-3A                  
1 40424U 15010A   26170.25076105  .00000000  00000+0  00000+0 0  9991
2 40424   0.0383  53.6665 0001831 350.9632 310.1053  1.00270019 41392
EUTELSAT 115 WEST B     
1 40425U 15010B   26170.48239339 -.00000032  00000+0  00000+0 0  9993
2 40425   0.0120 153.6503 0000565 325.1192 207.7110  1.00275408 41417
EXPRESS-AM7             
1 40505U 15012A   26170.54442881  .00000145  00000+0  00000+0 0  9993
2 40505   0.0149  55.7573 0002974  38.4653  49.5116  1.00271942 41033
BEIDOU-3S IGSO-1S       
1 40549U 15019A   26167.83844597 -.00000175  00000+0  00000+0 0  9990
2 40549  49.1960 295.4654 0039047 191.2267 171.7060  1.00249739 41078
THOR 7                  
1 40613U 15022A   26170.25119439 -.00000014  00000+0  00000+0 0  9998
2 40613   0.0233 241.0689 0002461 205.7284 270.4749  1.00273224 40834
TURKMENALEM52E/MONACOSAT
1 40617U 15023A   26170.54685549  .00000098  00000+0  00000+0 0  9996
2 40617   0.0429  79.9820 0002761   2.2670  74.3910  1.00272092 40879
DIRECTV 15              
1 40663U 15026A   26170.51617535 -.00000109  00000+0  00000+0 0  9991
2 40663   0.0137  53.7895 0000245 328.8611 328.0248  1.00273480 40487
SKY MEXICO-1            
1 40664U 15026B   26170.52094204 -.00000240  00000+0  00000+0 0  9991
2 40664   0.0158  54.5474 0002104  50.5186 271.4138  1.00272301 40474
METEOSAT-11 (MSG-4)     
1 40732U 15034A   26170.25327440  .00000056  00000+0  00000+0 0  9991
2 40732   3.2061  71.0943 0002422 346.2706 310.9097  1.00263709  7231
STAR ONE C4             
1 40733U 15034B   26170.38003584 -.00000271  00000+0  00000+0 0  9996
2 40733   0.0215   1.5931 0002048  52.3564 280.4743  1.00272503 40030
WGS F7 (USA 263)        
1 40746U 15036A   26170.14341398  .00000011  00000+0  00000+0 0  9995
2 40746   0.0021 358.7364 0000256 325.6112 169.6528  1.00270644 39895
INTELSAT 34 (IS-34)     
1 40874U 15039A   26170.38289586 -.00000292  00000+0  00000+0 0  9998
2 40874   0.0094   7.4220 0000705  83.2055 259.3358  1.00288278 39652
EUTELSAT 8 WEST B       
1 40875U 15039B   26170.39234257 -.00000072  00000+0  00000+0 0  9991
2 40875   0.0626 350.6515 0003896  94.6297 315.5859  1.00271571 39673
GSAT-6                  
1 40880U 15041A   26170.05383328 -.00000167  00000+0  00000+0 0  9992
2 40880   1.9238  82.5727 0003274 359.4466 287.1866  1.00271850 39610
INMARSAT 5-F3           
1 40882U 15042A   26170.14436731  .00000044  00000+0  00000+0 0  9995
2 40882   0.0179  16.0850 0000160  24.5770  98.3032  1.00269815 39596
MUOS-4                  
1 40887U 15044A   26170.55144884 -.00000100  00000+0  00000+0 0  9996
2 40887   4.3350  42.2675 0057870   2.3361 136.6713  1.00271421 39582
TJS-1                   
1 40892U 15046A   26170.58264326 -.00000162  00000+0  00000+0 0  9999
2 40892   0.3307  84.9014 0005602   0.7438 186.9636  1.00270822 39596
EXPRESS-AM8             
1 40895U 15048A   26170.60491196 -.00000117  00000+0  00000+0 0  9994
2 40895   0.0172 322.6068 0000403 341.9449 167.0360  1.00271528 39377
BEIDOU-3S IGSO-2S       
1 40938U 15053A   26170.58180501 -.00000142  00000+0  00000+0 0  9998
2 40938  49.2167 258.7534 0065636 192.2755 121.2664  1.00258860 39370
SKY MUSTER 1 (NBN1A)    
1 40940U 15054A   26170.50808822  .00000000  00000+0  00000+0 0  9999
2 40940   0.0230 349.6426 0001691  97.4768 143.7599  1.00268925 39289
ARSAT 2                 
1 40941U 15054B   26170.16400112 -.00000231  00000+0  00000+0 0  9999
2 40941   0.0103  12.6317 0002013  60.1259 172.6653  1.00270450 39329
MORELOS 3               
1 40946U 15056A   26170.48239339 -.00000050  00000+0  00000+0 0  9991
2 40946   3.1888  15.1270 0001088   3.9745 309.1718  1.00270793 39307
APSTAR-9                
1 40982U 15059A   26170.63594525 -.00000272  00000+0  00000+0 0  9998
2 40982   0.0404  57.1225 0002339 127.5906  94.0971  1.00271044 39148
TURKSAT 4B              
1 40984U 15060A   26170.54642215  .00000109  00000+0  00000+0 0  9990
2 40984   0.0194 339.7805 0002178 102.2215  72.4549  1.00268269 39127
ZHONGXING-2C            
1 41021U 15063A   26170.62825422 -.00000329  00000+0  00000+0 0  9993
2 41021   0.2812  89.5962 0007739  99.1665  48.7026  1.00269710 39009
